CCSDS_OMM_VERS = 2.0
CREATION_DATE  = 
ORIGINATOR     = 

OBJECT_NAME    = KUIPER-00154
OBJECT_ID      = 2025-228Y
CENTER_NAME    = EARTH
REF_FRAME      = TEME
TIME_SYSTEM    = UTC
MEAN_ELEMENT_THEORY = SGP/SGP4

EPOCH          = 2025-11-08T16:02:28.051008
MEAN_MOTION    = 15.35197595
ECCENTRICITY   = .0005561
INCLINATION    = 51.8770
RA_OF_ASC_NODE = 184.6944
ARG_OF_PERICENTER = 223.8403
MEAN_ANOMALY   = 136.2142

EPHEMERIS_TYPE = 0
CLASSIFICATION_TYPE = U
NORAD_CAT_ID   = 65969
ELEMENT_SET_NO = 999
REV_AT_EPOCH   = 518
BSTAR          = .13779E-2
MEAN_MOTION_DOT = .47741E-3
MEAN_MOTION_DDOT = 0

CCSDS_OMM_VERS = 2.0
CREATION_DATE  = 
ORIGINATOR     = 

OBJECT_NAME    = KUIPER-00157
OBJECT_ID      = 2025-228Z
CENTER_NAME    = EARTH
REF_FRAME      = TEME
TIME_SYSTEM    = UTC
MEAN_ELEMENT_THEORY = SGP/SGP4

EPOCH          = 2025-11-08T16:13:56.468064
MEAN_MOTION    = 15.34752159
ECCENTRICITY   = .0005585
INCLINATION    = 51.8783
RA_OF_ASC_NODE = 184.7522
ARG_OF_PERICENTER = 242.6239
MEAN_ANOMALY   = 117.4179

EPHEMERIS_TYPE = 0
CLASSIFICATION_TYPE = U
NORAD_CAT_ID   = 65970
ELEMENT_SET_NO = 999
REV_AT_EPOCH   = 518
BSTAR          = .17002E-2
MEAN_MOTION_DOT = .58241E-3
MEAN_MOTION_DDOT = 0

CCSDS_OMM_VERS = 2.0
CREATION_DATE  = 
ORIGINATOR     = 

OBJECT_NAME    = STRIX-5
OBJECT_ID      = 2025-229A
CENTER_NAME    = EARTH
REF_FRAME      = TEME
TIME_SYSTEM    = UTC
MEAN_ELEMENT_THEORY = SGP/SGP4

EPOCH          = 2025-11-08T18:55:15.631968
MEAN_MOTION    = 15.01809638
ECCENTRICITY   = .0038489
INCLINATION    = 41.9286
RA_OF_ASC_NODE = 67.3873
ARG_OF_PERICENTER = 49.1993
MEAN_ANOMALY   = 311.2161

EPHEMERIS_TYPE = 0
CLASSIFICATION_TYPE = U
NORAD_CAT_ID   = 65971
ELEMENT_SET_NO = 999
REV_AT_EPOCH   = 380
BSTAR          = .70607E-3
MEAN_MOTION_DOT = .9329E-4
MEAN_MOTION_DDOT = 0

CCSDS_OMM_VERS = 2.0
CREATION_DATE  = 
ORIGINATOR     = 

OBJECT_NAME    = ELECTRON R/B
OBJECT_ID      = 2025-229B
CENTER_NAME    = EARTH
REF_FRAME      = TEME
TIME_SYSTEM    = UTC
MEAN_ELEMENT_THEORY = SGP/SGP4

EPOCH          = 2025-11-08T01:21:47.928672
MEAN_MOTION    = 15.01793365
ECCENTRICITY   = .00385851
INCLINATION    = 41.9280
RA_OF_ASC_NODE = 71.4275
ARG_OF_PERICENTER = 44.3366
MEAN_ANOMALY   = 316.0539

EPHEMERIS_TYPE = 0
CLASSIFICATION_TYPE = U
NORAD_CAT_ID   = 65972
ELEMENT_SET_NO = 999
REV_AT_EPOCH   = 367
BSTAR          = .57452653E-3
MEAN_MOTION_DOT = .755E-4
MEAN_MOTION_DDOT = 0

CCSDS_OMM_VERS = 2.0
CREATION_DATE  = 
ORIGINATOR     = 

OBJECT_NAME    = ELECTRON KICK STAGE R/B
OBJECT_ID      = 2025-229C
CENTER_NAME    = EARTH
REF_FRAME      = TEME
TIME_SYSTEM    = UTC
MEAN_ELEMENT_THEORY = SGP/SGP4

EPOCH          = 2025-11-08T15:23:15.475776
MEAN_MOTION    = 15.02722251
ECCENTRICITY   = .0039632
INCLINATION    = 41.9842
RA_OF_ASC_NODE = 68.1511
ARG_OF_PERICENTER = 48.2215
MEAN_ANOMALY   = 312.1988

EPHEMERIS_TYPE = 0
CLASSIFICATION_TYPE = U
NORAD_CAT_ID   = 65973
ELEMENT_SET_NO = 999
REV_AT_EPOCH   = 375
BSTAR          = .85047E-3
MEAN_MOTION_DOT = .11571E-3
MEAN_MOTION_DDOT = 0

CCSDS_OMM_VERS = 2.0
CREATION_DATE  = 
ORIGINATOR     = 

OBJECT_NAME    = SDA_1664
OBJECT_ID      = 2025-230A
CENTER_NAME    = EARTH
REF_FRAME      = TEME
TIME_SYSTEM    = UTC
MEAN_ELEMENT_THEORY = SGP/SGP4

EPOCH          = 2025-11-08T18:41:21.997248
MEAN_MOTION    = 13.84697653
ECCENTRICITY   = .0003271
INCLINATION    = 81.2998
RA_OF_ASC_NODE = 56.1060
ARG_OF_PERICENTER = 54.1173
MEAN_ANOMALY   = 306.0287

EPHEMERIS_TYPE = 0
CLASSIFICATION_TYPE = U
NORAD_CAT_ID   = 65974
ELEMENT_SET_NO = 999
REV_AT_EPOCH   = 330
BSTAR          = .24592E-3
MEAN_MOTION_DOT = .288E-5
MEAN_MOTION_DDOT = 0

CCSDS_OMM_VERS = 2.0
CREATION_DATE  = 
ORIGINATOR     = 

OBJECT_NAME    = SDA_1665
OBJECT_ID      = 2025-230B
CENTER_NAME    = EARTH
REF_FRAME      = TEME
TIME_SYSTEM    = UTC
MEAN_ELEMENT_THEORY = SGP/SGP4

EPOCH          = 2025-11-08T18:23:21.471936
MEAN_MOTION    = 13.85427741
ECCENTRICITY   = .0005024
INCLINATION    = 81.3035
RA_OF_ASC_NODE = 56.1022
ARG_OF_PERICENTER = 95.7479
MEAN_ANOMALY   = 264.4251

EPHEMERIS_TYPE = 0
CLASSIFICATION_TYPE = U
NORAD_CAT_ID   = 65975
ELEMENT_SET_NO = 999
REV_AT_EPOCH   = 330
BSTAR          = .25391E-3
MEAN_MOTION_DOT = .301E-5
MEAN_MOTION_DDOT = 0

CCSDS_OMM_VERS = 2.0
CREATION_DATE  = 
ORIGINATOR     = 

OBJECT_NAME    = SDA_1666
OBJECT_ID      = 2025-230C
CENTER_NAME    = EARTH
REF_FRAME      = TEME
TIME_SYSTEM    = UTC
MEAN_ELEMENT_THEORY = SGP/SGP4

EPOCH          = 2025-11-08T18:43:07.710240
MEAN_MOTION    = 13.84626377
ECCENTRICITY   = .0002916
INCLINATION    = 81.3007
RA_OF_ASC_NODE = 56.1101
ARG_OF_PERICENTER = 51.4078
MEAN_ANOMALY   = 308.7340

EPHEMERIS_TYPE = 0
CLASSIFICATION_TYPE = U
NORAD_CAT_ID   = 65976
ELEMENT_SET_NO = 999
REV_AT_EPOCH   = 330
BSTAR          = .25325E-3
MEAN_MOTION_DOT = .296E-5
MEAN_MOTION_DDOT = 0

CCSDS_OMM_VERS = 2.0
CREATION_DATE  = 
ORIGINATOR     = 

OBJECT_NAME    = SDA_1667
OBJECT_ID      = 2025-230D
CENTER_NAME    = EARTH
REF_FRAME      = TEME
TIME_SYSTEM    = UTC
MEAN_ELEMENT_THEORY = SGP/SGP4

EPOCH          = 2025-11-08T18:36:55.850688
MEAN_MOTION    = 13.84877390
ECCENTRICITY   = .0003829
INCLINATION    = 81.3002
RA_OF_ASC_NODE = 56.1032
ARG_OF_PERICENTER = 64.5496
MEAN_ANOMALY   = 295.6057

EPHEMERIS_TYPE = 0
CLASSIFICATION_TYPE = U
NORAD_CAT_ID   = 65977
ELEMENT_SET_NO = 999
REV_AT_EPOCH   = 330
BSTAR          = .24357E-3
MEAN_MOTION_DOT = .287E-5
MEAN_MOTION_DDOT = 0

CCSDS_OMM_VERS = 2.0
CREATION_DATE  = 
ORIGINATOR     = 

OBJECT_NAME    = SDA_1668
OBJECT_ID      = 2025-230E
CENTER_NAME    = EARTH
REF_FRAME      = TEME
TIME_SYSTEM    = UTC
MEAN_ELEMENT_THEORY = SGP/SGP4

EPOCH          = 2025-11-08T18:22:20.089920
MEAN_MOTION    = 13.85469365
ECCENTRICITY   = .0004961
INCLINATION    = 81.3019
RA_OF_ASC_NODE = 56.0925
ARG_OF_PERICENTER = 98.6227
MEAN_ANOMALY   = 261.5492

EPHEMERIS_TYPE = 0
CLASSIFICATION_TYPE = U
NORAD_CAT_ID   = 65978
ELEMENT_SET_NO = 999
REV_AT_EPOCH   = 330
BSTAR          = .25651E-3
MEAN_MOTION_DOT = .304E-5
MEAN_MOTION_DDOT = 0

CCSDS_OMM_VERS = 2.0
CREATION_DATE  = 
ORIGINATOR     = 

OBJECT_NAME    = SDA_1669
OBJECT_ID      = 2025-230F
CENTER_NAME    = EARTH
REF_FRAME      = TEME
TIME_SYSTEM    = UTC
MEAN_ELEMENT_THEORY = SGP/SGP4

EPOCH          = 2025-11-08T18:28:04.718784
MEAN_MOTION    = 13.85236343
ECCENTRICITY   = .0005029
INCLINATION    = 81.3021
RA_OF_ASC_NODE = 56.0985
ARG_OF_PERICENTER = 86.0235
MEAN_ANOMALY   = 274.1497

EPHEMERIS_TYPE = 0
CLASSIFICATION_TYPE = U
NORAD_CAT_ID   = 65979
ELEMENT_SET_NO = 999
REV_AT_EPOCH   = 330
BSTAR          = .26488E-3
MEAN_MOTION_DOT = .312E-5
MEAN_MOTION_DDOT = 0

CCSDS_OMM_VERS = 2.0
CREATION_DATE  = 
ORIGINATOR     = 

OBJECT_NAME    = SDA_1670
OBJECT_ID      = 2025-230G
CENTER_NAME    = EARTH
REF_FRAME      = TEME
TIME_SYSTEM    = UTC
MEAN_ELEMENT_THEORY = SGP/SGP4

EPOCH          = 2025-11-08T18:38:31.396992
MEAN_MOTION    = 13.84816727
ECCENTRICITY   = .0003493
INCLINATION    = 81.2999
RA_OF_ASC_NODE = 56.1034
ARG_OF_PERICENTER = 61.2066
MEAN_ANOMALY   = 298.9442

EPHEMERIS_TYPE = 0
CLASSIFICATION_TYPE = U
NORAD_CAT_ID   = 65980
ELEMENT_SET_NO = 999
REV_AT_EPOCH   = 330
BSTAR          = -.41335E-3
MEAN_MOTION_DOT = -.454E-5
MEAN_MOTION_DDOT = 0

