KUIPER-00154            
1 65969U 25228Y   25312.66838022  .00047741  00000+0  13779-2 0  9993
2 65969  51.8770 184.6944 0005561 223.8403 136.2142 15.35197595  5183
KUIPER-00157            
1 65970U 25228Z   25312.67634801  .00058241  00000+0  17002-2 0  9995
2 65970  51.8783 184.7522 0005585 242.6239 117.4179 15.34752159  5187
STRIX-5                 
1 65971U 25229A   25312.78837537  .00009329  00000+0  70607-3 0  9994
2 65971  41.9286  67.3873 0038489  49.1993 311.2161 15.01809638  3808
ELECTRON R/B            
1 65972U 25229B   25312.05680473  .00007550  00000+0  57453-3 0  9998
2 65972  41.9280  71.4275 0038585  44.3366 316.0539 15.01793365  3679
ELECTRON KICK STAGE R/B 
1 65973U 25229C   25312.64115134  .00011571  00000+0  85047-3 0  9999
2 65973  41.9842  68.1511 0039632  48.2215 312.1988 15.02722251  3751
SDA_1664                
1 65974U 25230A   25312.77872682  .00000288  00000+0  24592-3 0  9995
2 65974  81.2998  56.1060 0003271  54.1173 306.0287 13.84697653  3306
SDA_1665                
1 65975U 25230B   25312.76622074  .00000301  00000+0  25391-3 0  9997
2 65975  81.3035  56.1022 0005024  95.7479 264.4251 13.85427741  3304
SDA_1666                
1 65976U 25230C   25312.77995035  .00000296  00000+0  25325-3 0  9999
2 65976  81.3007  56.1101 0002916  51.4078 308.7340 13.84626377  3309
SDA_1667                
1 65977U 25230D   25312.77564642  .00000287  00000+0  24357-3 0  9990
2 65977  81.3002  56.1032 0003829  64.5496 295.6057 13.84877390  3303
SDA_1668                
1 65978U 25230E   25312.76551030  .00000304  00000+0  25651-3 0  9995
2 65978  81.3019  56.0925 0004961  98.6227 261.5492 13.85469365  3305
SDA_1669                
1 65979U 25230F   25312.76949906  .00000312  00000+0  26488-3 0  9997
2 65979  81.3021  56.0985 0005029  86.0235 274.1497 13.85236343  3304
SDA_1670                
1 65980U 25230G   25312.77675228 -.00000454  00000+0 -41335-3 0  9990
2 65980  81.2999  56.1034 0003493  61.2066 298.9442 13.84816727  3308
